BEIJING 1               
1 28890U 05043A   18021.51370414  .00000052  00000-0  19631-4 0  9997
2 28890  97.9033 172.4937 0015485 177.7219 182.4069 14.61208587652308
HJ-1A                   
1 33320U 08041A   18022.15849062  .00000094  00000-0  20533-4 0  9992
2 33320  97.9095  87.9274 0027281  40.8516 319.4739 14.76884468505106
HJ-1B                   
1 33321U 08041B   18022.15280108  .00000128  00000-0  25282-4 0  9997
2 33321  97.9147  89.3032 0036056  56.5653 303.9007 14.76968998505094
YAOGAN 4                
1 33446U 08061A   18022.18000545  .00000073  00000-0  17239-4 0  9997
2 33446  97.6111  11.4833 0014810 312.9236  47.0731 14.76735851492348
DEIMOS-1                
1 35681U 09041A   18022.19843930 -.00000016  00000-0  52018-5 0  9996
2 35681  97.9283 274.1742 0001864  40.6984 319.4371 14.71712086455357
UK-DMC 2                
1 35683U 09041C   18021.80758197 -.00000069  00000-0 -37409-5 0  9991
2 35683  97.8061 256.8777 0001844  84.2992 275.8416 14.71006714455144
RISAT 1                 
1 38248U 12017A   18022.14733316  .00000444  00000-0  31764-4 0  9994
2 38248  97.5733  32.0575 0005335  32.1362  54.6974 15.09399161316263
DMC3-FM1                
1 40715U 15032A   18021.53202169  .00000010  00000-0  92626-5 0  9999
2 40715  98.0204 279.8108 0016398 153.5732 206.6315 14.73671989136356
DMC3-FM2                
1 40716U 15032B   18022.16620242  .00000032  00000-0  12688-4 0  9999
2 40716  98.0222 280.5605 0013370 158.2533 201.9255 14.73679493136456
DMC3-FM3                
1 40717U 15032C   18022.18849628  .00000043  00000-0  14411-4 0  9991
2 40717  98.0209 281.3051 0017451 152.9184 207.2934 14.73706609136456
